NORAD_CAT_ID,OBJECT_NAME,OBJECT_TYPE,EPOCH,MEAN_MOTION,ECCENTRICITY,INCLINATION,RA_OF_ASC_NODE,ARG_OF_PERICENTER,MEAN_ANOMALY,BSTAR,MEAN_MOTION_DOT,MEAN_MOTION_DDOT,TLE_LINE0,TLE_LINE1,TLE_LINE2,SEMIMAJOR_AXIS,PERIOD,APOGEE,PERIGEE,DECAYED
54100.0,STARLINK-5185,PAYLOAD,2024-05-24 20:53:23,15.08837015,0.0002124,53.2169,28.9351,141.891,218.2232,0.0005849,9.032e-05,0.0,0 STARLINK-5185,1 54100U 22136BB  24145.87040763  .00009032  00000-0  58490-3 0  9998,2 54100  53.2169  28.9351 0002124 141.8910 218.2232 15.08837015 88755,6917.89,95.438,541.224,538.285,0.0
54100.0,STARLINK-5185,PAYLOAD,2024-05-24 22:28:46,15.08836933,9.05e-05,53.2166,28.6435,83.8786,276.2309,0.00032811,4.938e-05,0.0,0 STARLINK-5185,1 54100U 22136BB  24145.93665205  .00004938  00000-0  32811-3 0  9998,2 54100  53.2166  28.6435 0000905  83.8786 276.2309 15.08836933 88299,6917.89,95.438,540.381,539.129,0.0
54100.0,STARLINK-5185,PAYLOAD,2024-05-25 09:36:28,15.08843659,0.0001141,53.2169,26.5642,66.07,294.0412,0.00060251,9.315e-05,0.0,0 STARLINK-5185,1 54100U 22136BB  24146.40033302  .00009315  00000-0  60251-3 0  9991,2 54100  53.2169  26.5642 0001141  66.0700 294.0412 15.08843659 88365,6917.869,95.437,540.524,538.945,0.0
54100.0,STARLINK-5185,PAYLOAD,2024-05-25 20:44:11,15.08830406,0.000133,53.2169,24.4815,82.0926,278.0217,0.00077201,0.00012017,0.0,0 STARLINK-5185,1 54100U 22136BB  24146.86401740  .00012017  00000-0  77201-3 0  9992,2 54100  53.2169  24.4815 0001330  82.0926 278.0217 15.08830406 88903,6917.91,95.438,540.695,538.855,0.0
54100.0,STARLINK-5185,PAYLOAD,2024-05-25 22:19:34,15.08845384,0.0001088,53.2163,24.1862,75.4406,284.6707,0.00043012,6.565e-05,0.0,0 STARLINK-5185,1 54100U 22136BB  24146.93025628  .00006565  00000-0  43012-3 0  9991,2 54100  53.2163  24.1862 0001088  75.4406 284.6707 15.08845384 88442,6917.864,95.437,540.482,538.976,0.0
54100.0,STARLINK-5185,PAYLOAD,2024-05-26 22:10:20,15.08854584,0.0001237,53.2173,19.725,86.6238,273.4896,0.00067771,0.00010519,0.0,0 STARLINK-5185,1 54100U 22136BB  24147.92385248  .00010519  00000-0  67771-3 0  9990,2 54100  53.2173  19.7250 0001237  86.6238 273.4896 15.08854584 88590,6917.836,95.437,540.557,538.845,0.0
54100.0,STARLINK-5185,PAYLOAD,2024-05-27 01:21:06,15.08845769,0.00016,53.2167,19.1343,62.9262,297.1893,0.00030164,4.517e-05,0.0,0 STARLINK-5185,1 54100U 22136BB  24148.05632975  .00004517  00000-0  30164-3 0  9994,2 54100  53.2167  19.1343 0001600  62.9262 297.1893 15.08845769 89088,6917.863,95.437,540.835,538.621,0.0
54100.0,STARLINK-5185,PAYLOAD,2024-05-27 20:25:45,15.08846217,0.0001372,53.2178,15.5593,90.7991,269.3158,0.00028884,4.313e-05,0.0,0 STARLINK-5185,1 54100U 22136BB  24148.85121530  .00004313  00000-0  28884-3 0  9992,2 54100  53.2178  15.5593 0001372  90.7991 269.3158 15.08846217 89209,6917.861,95.437,540.676,538.777,0.0
54100.0,STARLINK-5185,PAYLOAD,2024-05-27 22:01:08,15.08848055,0.0001393,53.218,15.262,94.883,265.2322,0.00035576,5.38e-05,0.0,0 STARLINK-5185,1 54100U 22136BB  24148.91745470  .00005380  00000-0  35576-3 0  9995,2 54100  53.2180  15.2620 0001393  94.8830 265.2322 15.08848055 88748,6917.856,95.437,540.684,538.757,0.0
54100.0,STARLINK-5185,PAYLOAD,2024-05-28 07:33:26,15.08855617,0.0001402,53.2182,13.4766,93.1043,267.011,0.00074624,0.00011613,0.0,0 STARLINK-5185,1 54100U 22136BB  24149.31489237  .00011613  00000-0  74624-3 0  9999,2 54100  53.2182  13.4766 0001402  93.1043 267.0110 15.08855617 88804,6917.833,95.437,540.668,538.728,0.0
54100.0,STARLINK-5185,PAYLOAD,2024-05-28 20:16:31,15.08847161,0.0001393,53.2179,11.0969,102.3869,257.7279,0.00028128,4.192e-05,0.0,0 STARLINK-5185,1 54100U 22136BB  24149.84481279  .00004192  00000-0  28128-3 0  9997,2 54100  53.2179  11.0969 0001393 102.3869 257.7279 15.08847161 89355,6917.859,95.437,540.687,538.76,0.0
54100.0,STARLINK-5185,PAYLOAD,2024-05-28 21:51:54,15.0884727,0.0001356,53.2181,10.7997,95.9657,264.149,0.00026522,3.936e-05,0.0,0 STARLINK-5185,1 54100U 22136BB  24149.91105278  .00003936  00000-0  26522-3 0  9998,2 54100  53.2181  10.7997 0001356  95.9657 264.1490 15.08847270 88892,6917.858,95.437,540.661,538.785,0.0
54100.0,STARLINK-5185,PAYLOAD,2024-05-29 13:45:46,15.08837153,0.0001341,53.2176,7.8264,97.949,262.1654,-3.9021e-05,-9.09e-06,0.0,0 STARLINK-5185,1 54100U 22136BB  24150.57345506 -.00000909  00000-0 -39021-4 0  9990,2 54100  53.2176   7.8264 0001341  97.9490 262.1654 15.08837153 89464,6917.889,95.438,540.682,538.826,0.0
54100.0,STARLINK-5185,PAYLOAD,2024-05-29 21:42:42,15.08840117,0.0001417,53.2181,6.3396,102.8934,257.2216,2.4462e-05,1.01e-06,0.0,0 STARLINK-5185,1 54100U 22136BB  24150.90465600  .00000101  00000-0  24462-4 0  9990,2 54100  53.2181   6.3396 0001417 102.8934 257.2216 15.08840117 89040,6917.88,95.438,540.725,538.765,0.0
54100.0,STARLINK-5185,PAYLOAD,2024-05-30 19:58:05,15.08850019,0.0001415,53.2187,2.177,100.9564,259.1587,0.00020458,2.97e-05,0.0,0 STARLINK-5185,1 54100U 22136BB  24151.83200966  .00002970  00000-0  20458-3 0  9991,2 54100  53.2187   2.1770 0001415 100.9564 259.1587 15.08850019 89653,6917.85,95.437,540.694,538.736,0.0
54100.0,STARLINK-5185,PAYLOAD,2024-05-30 21:33:29,15.08829557,0.0001516,53.219,1.8796,91.5211,268.5954,0.000606,9.367e-05,0.0,0 STARLINK-5185,1 54100U 22136BB  24151.89825706  .00009367  00000-0  60600-3 0  9992,2 54100  53.2190   1.8796 0001516  91.5211 268.5954 15.08829557 89191,6917.912,95.438,540.826,538.729,0.0
54100.0,STARLINK-5185,PAYLOAD,2024-05-30 23:08:51,15.08854149,0.0001407,53.2182,1.5824,93.6,266.5154,0.00030357,4.549e-05,0.0,0 STARLINK-5185,1 54100U 22136BB  24151.96448904  .00004549  00000-0  30357-3 0  9994,2 54100  53.2182   1.5824 0001407  93.6000 266.5154 15.08854149 89206,6917.837,95.437,540.675,538.729,0.0
54100.0,STARLINK-5185,PAYLOAD,2024-05-31 19:48:52,15.08846876,0.0001321,53.2173,357.716,96.87,263.2442,0.0001087,1.443e-05,0.0,0 STARLINK-5185,1 54100U 22136BB  24152.82560996  .00001443  00000-0  10870-3 0  9994,2 54100  53.2173 357.7160 0001321  96.8700 263.2442 15.08846876 89800,6917.859,95.437,540.638,538.811,0.0
54100.0,STARLINK-5185,PAYLOAD,2024-05-31 21:24:15,15.08849228,0.0001247,53.2173,357.4179,94.1055,266.0079,0.00012463,1.697e-05,0.0,0 STARLINK-5185,1 54100U 22136BB  24152.89184826  .00001697  00000-0  12463-3 0  9996,2 54100  53.2173 357.4179 0001247  94.1055 266.0079 15.08849228 89348,6917.852,95.437,540.58,538.855,0.0
54100.0,STARLINK-5185,PAYLOAD,2024-06-01 13:18:07,15.08839508,0.0001543,53.2183,354.4458,86.3318,273.7851,-2.1016e-05,-6.22e-06,0.0,0 STARLINK-5185,1 54100U 22136BB  24153.55425378 -.00000622  00000-0 -21016-4 0  9994,2 54100  53.2183 354.4458 0001543  86.3318 273.7851 15.08839508 89916,6917.882,95.438,540.814,538.679,0.0
54100.0,STARLINK-5185,PAYLOAD,2024-06-02 06:47:21,15.08842083,0.0001383,53.2174,351.1737,93.3035,266.8116,9.9909e-06,-1.29e-06,0.0,0 STARLINK-5185,1 54100U 22136BB  24154.28289232 -.00000129  00000-0  99909-5 0  9990,2 54100  53.2174 351.1737 0001383  93.3035 266.8116 15.08842083 89555,6917.874,95.437,540.696,538.782,0.0
54100.0,STARLINK-5185,PAYLOAD,2024-06-03 19:21:14,15.0884315,0.0001501,53.2178,344.3346,96.7217,263.3946,0.00027368,4.071e-05,0.0,0 STARLINK-5185,1 54100U 22136BB  24155.80641596  .00004071  00000-0  27368-3 0  9991,2 54100  53.2178 344.3346 0001501  96.7217 263.3946 15.08843150 90258,6917.871,95.437,540.774,538.697,0.0
54100.0,STARLINK-5185,PAYLOAD,2024-06-04 19:12:01,15.0884508,0.0001414,53.2171,339.8754,88.0181,272.0973,0.00014196,1.972e-05,0.0,0 STARLINK-5185,1 54100U 22136BB  24156.80001396  .00001972  00000-0  14196-3 0  9992,2 54100  53.2171 339.8754 0001414  88.0181 272.0973 15.08845080 89934,6917.865,95.437,540.708,538.752,0.0
54100.0,STARLINK-5185,PAYLOAD,2024-06-05 04:44:20,15.08840673,0.0001485,53.2193,338.0896,84.925,275.1911,4.6128e-05,4.46e-06,0.0,0 STARLINK-5185,1 54100U 22136BB  24157.19745761  .00000446  00000-0  46128-4 0  9992,2 54100  53.2193 338.0896 0001485  84.9250 275.1911 15.08840673 90465,6917.878,95.438,540.771,538.716,0.0
54100.0,STARLINK-5185,PAYLOAD,2024-06-05 12:41:16,15.0883097,0.00015,53.2176,336.6051,89.1265,270.9899,-8.5938e-05,-1.655e-05,0.0,0 STARLINK-5185,1 54100U 22136BB  24157.52866170 -.00001655  00000-0 -85938-4 0  9994,2 54100  53.2176 336.6051 0001500  89.1265 270.9899 15.08830970 90045,6917.908,95.438,540.811,538.735,0.0
54100.0,STARLINK-5185,PAYLOAD,2024-06-05 19:02:48,15.08839604,0.0001654,53.2248,335.4156,93.3807,266.7375,9.742e-05,1.263e-05,0.0,0 STARLINK-5185,1 54100U 22136BB  24157.79362012  .00001263  00000-0  97420-4 0  9991,2 54100  53.2248 335.4156 0001654  93.3807 266.7375 15.08839604 90086,6917.882,95.438,540.891,538.602,0.0
54100.0,STARLINK-5185,PAYLOAD,2024-06-06 04:35:07,15.08840296,6.83e-05,53.2171,333.6284,60.0015,300.1044,7.6141e-05,9.24e-06,0.0,0 STARLINK-5185,1 54100U 22136BB  24158.19105790  .00000924  00000-0  76141-4 0  9994,2 54100  53.2171 333.6284 0000683  60.0015 300.1044 15.08840296 90148,6917.879,95.438,540.217,539.272,0.0
54100.0,STARLINK-5185,PAYLOAD,2024-06-07 20:19:46,15.08847158,0.0001603,53.2193,326.1973,92.2331,267.8845,0.00020527,2.981e-05,0.0,0 STARLINK-5185,1 54100U 22136BB  24159.84706027  .00002981  00000-0  20527-3 0  9998,2 54100  53.2193 326.1973 0001603  92.2331 267.8845 15.08847158 90866,6917.859,95.437,540.832,538.615,0.0
54100.0,STARLINK-5185,PAYLOAD,2024-06-08 04:16:41,15.08842694,0.0001799,53.2142,324.7065,90.473,269.6468,9.9009e-05,1.288e-05,0.0,0 STARLINK-5185,1 54100U 22136BB  24160.17826284  .00001288  00000-0  99009-4 0  9995,2 54100  53.2142 324.7065 0001799  90.4730 269.6468 15.08842694 90440,6917.872,95.437,540.982,538.493,0.0
54100.0,STARLINK-5185,PAYLOAD,2024-06-08 20:10:32,15.08862323,0.0001489,53.2165,321.7332,93.6478,266.4685,5.354e-05,5.65e-06,0.0,0 STARLINK-5185,1 54100U 22136BB  24160.84065228  .00000565  00000-0  53540-4 0  9999,2 54100  53.2165 321.7332 0001489  93.6478 266.4685 15.08862323 90547,6917.812,95.436,540.707,538.647,0.0
